{"type": "FeatureCollection", "features": [ {"type": "Feature", "properties": {"norad_id": 66850, "name": "STARLINK-36105", "group": "last-30-days", "lat": -41.057746568017514, "lon": -46.447845802806974, "alt_km": 369.11783626802116, "timestamp": "2025-12-22T05:49:02.186807+00:00", "meta": {"OBJECT_NAME": "STARLINK-36105", "OBJECT_ID": "2025-281C", "EPOCH": "2025-12-21T20:00:01.999008", "MEAN_MOTION": 15.68977105, "ECCENTRICITY": 0.0001335, "INCLINATION": 43.0003, "RA_OF_ASC_NODE": 66.8188, "ARG_OF_PERICENTER": 286.079, "MEAN_ANOMALY": 176.5207, "EPHEMERIS_TYPE": 0, "CLASSIFICATION_TYPE": "U", "NORAD_CAT_ID": 66850, "ELEMENT_SET_NO": 999, "REV_AT_EPOCH": 285, "BSTAR": -0.018575, "MEAN_MOTION_DOT": -0.01949992, "MEAN_MOTION_DDOT": 0}, "tle": {"line1": "1 66850U 25281C   25355.83335647 -.01949992  00000+0 -18575-1 0  9993", "line2": "2 66850  43.0003  66.8188 0001335 286.0790 176.5207 15.68977105  2850"}}, "geometry": {"type": "Point", "coordinates": [-46.447845802806974, -41.057746568017514]}}, {"type": "Feature", "properties": {"norad_id": 66851, "name": "STARLINK-36094", "group": "last-30-days", "lat": -41.496501910609126, "lon": -43.96286188586083, "alt_km": 369.0478617467197, "timestamp": "2025-12-22T05:49:02.186817+00:00", "meta": {"OBJECT_NAME": "STARLINK-36094", "OBJECT_ID": "2025-281D", "EPOCH": "2025-12-21T20:00:01.999008", "MEAN_MOTION": 15.68950111, "ECCENTRICITY": 0.0001651, "INCLINATION": 43.0002, "RA_OF_ASC_NODE": 66.8134, "ARG_OF_PERICENTER": 285.8893, "MEAN_ANOMALY": 178.6888, "EPHEMERIS_TYPE": 0, "CLASSIFICATION_TYPE": "U", "NORAD_CAT_ID": 66851, "ELEMENT_SET_NO": 999, "REV_AT_EPOCH": 285, "BSTAR": -0.01877, "MEAN_MOTION_DOT": -0.01966274, "MEAN_MOTION_DDOT": 0}, "tle": {"line1": "1 66851U 25281D   25355.83335647 -.01966274  00000+0 -18770-1 0  9993", "line2": "2 66851  43.0002  66.8134 0001651 285.8893 178.6888 15.68950111  2859"}}, "geometry": {"type": "Point", "coordinates": [-43.96286188586083, -41.496501910609126]}}, {"type": "Feature", "properties": {"norad_id": 66852, "name": "STARLINK-35992", "group": "last-30-days", "lat": -41.87842271448439, "lon": -41.46378570481914, "alt_km": 369.1993550898478, "timestamp": "2025-12-22T05:49:02.186829+00:00", "meta": {"OBJECT_NAME": "STARLINK-35992", "OBJECT_ID": "2025-281E", "EPOCH": "2025-12-21T20:00:01.999008", "MEAN_MOTION": 15.6897823, "ECCENTRICITY": 0.0001225, "INCLINATION": 43.0003, "RA_OF_ASC_NODE": 66.8091, "ARG_OF_PERICENTER": 288.0679, "MEAN_ANOMALY": 178.367, "EPHEMERIS_TYPE": 0, "CLASSIFICATION_TYPE": "U", "NORAD_CAT_ID": 66852, "ELEMENT_SET_NO": 999, "REV_AT_EPOCH": 285, "BSTAR": -0.0186, "MEAN_MOTION_DOT": -0.01952251, "MEAN_MOTION_DDOT": 0}, "tle": {"line1": "1 66852U 25281E   25355.83335647 -.01952251  00000+0 -18600-1 0  9996", "line2": "2 66852  43.0003  66.8091 0001225 288.0679 178.3670 15.68978230  2855"}}, "geometry": {"type": "Point", "coordinates": [-41.46378570481914, -41.87842271448439]}}, {"type": "Feature", "properties": {"norad_id": 66853, "name": "STARLINK-35986", "group": "last-30-days", "lat": -42.20596507923343, "lon": -38.931114836414174, "alt_km": 369.10291437931664, "timestamp": "2025-12-22T05:49:02.186841+00:00", "meta": {"OBJECT_NAME": "STARLINK-35986", "OBJECT_ID": "2025-281F", "EPOCH": "2025-12-21T20:00:01.999008", "MEAN_MOTION": 15.68972033, "ECCENTRICITY": 0.0001359, "INCLINATION": 43.0003, "RA_OF_ASC_NODE": 66.8043, "ARG_OF_PERICENTER": 287.5849, "MEAN_ANOMALY": 180.7688, "EPHEMERIS_TYPE": 0, "CLASSIFICATION_TYPE": "U", "NORAD_CAT_ID": 66853, "ELEMENT_SET_NO": 999, "REV_AT_EPOCH": 285, "BSTAR": -0.018514, "MEAN_MOTION_DOT": -0.01943921, "MEAN_MOTION_DDOT": 0}, "tle": {"line1": "1 66853U 25281F   25355.83335647 -.01943921  00000+0 -18514-1 0  9995", "line2": "2 66853  43.0003  66.8043 0001359 287.5849 180.7688 15.68972033  2855"}}, "geometry": {"type": "Point", "coordinates": [-38.931114836414174, -42.20596507923343]}}, {"type": "Feature", "properties": {"norad_id": 66854, "name": "STARLINK-36087", "group": "last-30-days", "lat": -42.47825235926594, "lon": -36.36382377042206, "alt_km": 369.4499973205866, "timestamp": "2025-12-22T05:49:02.186852+00:00", "meta": {"OBJECT_NAME": "STARLINK-36087", "OBJECT_ID": "2025-281G", "EPOCH": "2025-12-21T20:00:01.999008", "MEAN_MOTION": 15.68942127, "ECCENTRICITY": 9.9e-05, "INCLINATION": 43.0005, "RA_OF_ASC_NODE": 66.7991, "ARG_OF_PERICENTER": 283.0659, "MEAN_ANOMALY": 187.2527, "EPHEMERIS_TYPE": 0, "CLASSIFICATION_TYPE": "U", "NORAD_CAT_ID": 66854, "ELEMENT_SET_NO": 999, "REV_AT_EPOCH": 285, "BSTAR": -0.0185, "MEAN_MOTION_DOT": -0.01940209, "MEAN_MOTION_DDOT": 0}, "tle": {"line1": "1 66854U 25281G   25355.83335647 -.01940209  00000+0 -18500-1 0  9997", "line2": "2 66854  43.0005  66.7991 0000990 283.0659 187.2527 15.68942127  2854"}}, "geometry": {"type": "Point", "coordinates": [-36.36382377042206, -42.47825235926594]}}, {"type": "Feature", "properties": {"norad_id": 66855, "name": "STARLINK-36090", "group": "last-30-days", "lat": -42.6915140986332, "lon": -33.78657520700094, "alt_km": 369.1341800654491, "timestamp": "2025-12-22T05:49:02.186861+00:00", "meta": {"OBJECT_NAME": "STARLINK-36090", "OBJECT_ID": "2025-281H", "EPOCH": "2025-12-21T20:00:01.999008", "MEAN_MOTION": 15.68978315, "ECCENTRICITY": 0.000121, "INCLINATION": 43.0004, "RA_OF_ASC_NODE": 66.7944, "ARG_OF_PERICENTER": 282.642, "MEAN_ANOMALY": 189.5449, "EPHEMERIS_TYPE": 0, "CLASSIFICATION_TYPE": "U", "NORAD_CAT_ID": 66855, "ELEMENT_SET_NO": 999, "REV_AT_EPOCH": 273, "BSTAR": -0.018605, "MEAN_MOTION_DOT": -0.01952743, "MEAN_MOTION_DDOT": 0}, "tle": {"line1": "1 66855U 25281H   25355.83335647 -.01952743  00000+0 -18605-1 0  9990", "line2": "2 66855  43.0004  66.7944 0001210 282.6420 189.5449 15.68978315  2732"}}, "geometry": {"type": "Point", "coordinates": [-33.78657520700094, -42.6915140986332]}}, {"type": "Feature", "properties": {"norad_id": 66856, "name": "STARLINK-36072", "group": "last-30-days", "lat": -42.84615448721516, "lon": -31.19567121080938, "alt_km": 369.1744656684341, "timestamp": "2025-12-22T05:49:02.186873+00:00", "meta": {"OBJECT_NAME": "STARLINK-36072", "OBJECT_ID": "2025-281J", "EPOCH": "2025-12-21T20:00:01.999008", "MEAN_MOTION": 15.68981052, "ECCENTRICITY": 0.0001185, "INCLINATION": 43.0001, "RA_OF_ASC_NODE": 66.7893, "ARG_OF_PERICENTER": 286.5765, "MEAN_ANOMALY": 187.5241, "EPHEMERIS_TYPE": 0, "CLASSIFICATION_TYPE": "U", "NORAD_CAT_ID": 66856, "ELEMENT_SET_NO": 999, "REV_AT_EPOCH": 285, "BSTAR": -0.018633, "MEAN_MOTION_DOT": -0.01955519, "MEAN_MOTION_DDOT": 0}, "tle": {"line1": "1 66856U 25281J   25355.83335647 -.01955519  00000+0 -18633-1 0  9996", "line2": "2 66856  43.0001  66.7893 0001185 286.5765 187.5241 15.68981052  2852"}}, "geometry": {"type": "Point", "coordinates": [-31.19567121080938, -42.84615448721516]}}, {"type": "Feature", "properties": {"norad_id": 66857, "name": "STARLINK-36083", "group": "last-30-days", "lat": -42.94237220822679, "lon": -28.590843898237605, "alt_km": 369.1449964312078, "timestamp": "2025-12-22T05:49:02.186883+00:00", "meta": {"OBJECT_NAME": "STARLINK-36083", "OBJECT_ID": "2025-281K", "EPOCH": "2025-12-21T20:00:01.999008", "MEAN_MOTION": 15.68979402, "ECCENTRICITY": 0.0001216, "INCLINATION": 43.0002, "RA_OF_ASC_NODE": 66.7844, "ARG_OF_PERICENTER": 286.7292, "MEAN_ANOMALY": 189.2894, "EPHEMERIS_TYPE": 0, "CLASSIFICATION_TYPE": "U", "NORAD_CAT_ID": 66857, "ELEMENT_SET_NO": 999, "REV_AT_EPOCH": 285, "BSTAR": -0.018613, "MEAN_MOTION_DOT": -0.01953573, "MEAN_MOTION_DDOT": 0}, "tle": {"line1": "1 66857U 25281K   25355.83335647 -.01953573  00000+0 -18613-1 0  9993", "line2": "2 66857  43.0002  66.7844 0001216 286.7292 189.2894 15.68979402  2851"}}, "geometry": {"type": "Point", "coordinates": [-28.590843898237605, -42.94237220822679]}}, {"type": "Feature", "properties": {"norad_id": 66858, "name": "STARLINK-35118", "group": "last-30-days", "lat": -42.97935416333815, "lon": -25.983772607349394, "alt_km": 369.1140624509435, "timestamp": "2025-12-22T05:49:02.186916+00:00", "meta": {"OBJECT_NAME": "STARLINK-35118", "OBJECT_ID": "2025-281L", "EPOCH": "2025-12-21T20:00:01.999008", "MEAN_MOTION": 15.68968265, "ECCENTRICITY": 0.0001219, "INCLINATION": 43.0005, "RA_OF_ASC_NODE": 66.7793, "ARG_OF_PERICENTER": 286.7564, "MEAN_ANOMALY": 191.1794, "EPHEMERIS_TYPE": 0, "CLASSIFICATION_TYPE": "U", "NORAD_CAT_ID": 66858, "ELEMENT_SET_NO": 999, "REV_AT_EPOCH": 264, "BSTAR": -0.01842, "MEAN_MOTION_DOT": -0.01934831, "MEAN_MOTION_DDOT": 0}, "tle": {"line1": "1 66858U 25281L   25355.83335647 -.01934831  00000+0 -18420-1 0  9996", "line2": "2 66858  43.0005  66.7793 0001219 286.7564 191.1794 15.68968265  2646"}}, "geometry": {"type": "Point", "coordinates": [-25.983772607349394, -42.97935416333815]}}, {"type": "Feature", "properties": {"norad_id": 66859, "name": "STARLINK-35646", "group": "last-30-days", "lat": -42.95652555238655, "lon": -23.371351162411855, "alt_km": 369.10524476012597, "timestamp": "2025-12-22T05:49:02.186927+00:00", "meta": {"OBJECT_NAME": "STARLINK-35646", "OBJECT_ID": "2025-281M", "EPOCH": "2025-12-21T20:00:01.999008", "MEAN_MOTION": 15.68972835, "ECCENTRICITY": 0.0001221, "INCLINATION": 43.0005, "RA_OF_ASC_NODE": 66.7749, "ARG_OF_PERICENTER": 286.9451, "MEAN_ANOMALY": 192.9063, "EPHEMERIS_TYPE": 0, "CLASSIFICATION_TYPE": "U", "NORAD_CAT_ID": 66859, "ELEMENT_SET_NO": 999, "REV_AT_EPOCH": 285, "BSTAR": -0.018488, "MEAN_MOTION_DOT": -0.01941475, "MEAN_MOTION_DDOT": 0}, "tle": {"line1": "1 66859U 25281M   25355.83335647 -.01941475  00000+0 -18488-1 0  9993", "line2": "2 66859  43.0005  66.7749 0001221 286.9451 192.9063 15.68972835  2857"}}, "geometry": {"type": "Point", "coordinates": [-23.371351162411855, -42.95652555238655]}}]}